start=new Date('2022-01-05T00:00:00.000Z').valueOf();
sats=[{"COUNTRY_CODE":"US","LAUNCH_DATE":"2020-11-25","DECAY_DATE":null,"ECCENTRICITY":"0.00020010","OBJECT_NAME":"STARLINK-1849","INCLINATION":"53.0550","BSTAR":"0.00003245000000","MEAN_ELEMENT_THEORY":"SGP4","TLE_LINE1":"1 47137U 20088R   22004.21217187  .00000202  00000-0  32450-4 0  9999","OBJECT_ID":"2020-088R","EPOCH":"2022-01-04T05:05:31.649568","TIME_SYSTEM":"UTC","FILE":"3263295","EPHEMERIS_TYPE":"0","NORAD_CAT_ID":"47137","CLASSIFICATION_TYPE":"U","GP_ID":"193180620","MEAN_MOTION":"15.06390465","ELEMENT_SET_NO":"999","APOAPSIS":"548.629","MEAN_MOTION_DOT":"0.00000202","SITE":"AFETR","REF_FRAME":"TEME","MEAN_MOTION_DDOT":"0.0000000000000","OBJECT_TYPE":"PAYLOAD","PERIAPSIS":"545.857","ARG_OF_PERICENTER":"54.9238","REV_AT_EPOCH":"6205","RCS_SIZE":"LARGE","RA_OF_ASC_NODE":"299.7546","PERIOD":"95.593","CENTER_NAME":"EARTH","SEMIMAJOR_AXIS":"6925.378","TLE_LINE2":"2 47137  53.0550 299.7546 0002001  54.9238 305.1938 15.06390465 62059","MEAN_ANOMALY":"305.1938"},{"MEAN_ANOMALY":"303.0538","TLE_LINE2":"2 47138  53.0565 302.2126 0001951  57.0638 303.0538 15.06400811 62073","SEMIMAJOR_AXIS":"6925.346","CENTER_NAME":"EARTH","PERIOD":"95.592","RA_OF_ASC_NODE":"302.2126","RCS_SIZE":"LARGE","REV_AT_EPOCH":"6207","ARG_OF_PERICENTER":"57.0638","PERIAPSIS":"545.860","OBJECT_TYPE":"PAYLOAD","MEAN_MOTION_DDOT":"0.0000000000000","REF_FRAME":"TEME","SITE":"AFETR","MEAN_MOTION_DOT":"-0.00000286","APOAPSIS":"548.562","ELEMENT_SET_NO":"999","MEAN_MOTION":"15.06400811","GP_ID":"193214473","CLASSIFICATION_TYPE":"U","EPHEMERIS_TYPE":"0","NORAD_CAT_ID":"47138","FILE":"3264067","TIME_SYSTEM":"UTC","EPOCH":"2022-01-04T18:38:14.002944","OBJECT_ID":"2020-088S","TLE_LINE1":"1 47138U 20088S   22004.77655096 -.00000286  00000-0 -28182-6 0  9999","MEAN_ELEMENT_THEORY":"SGP4","BSTAR":"-0.00000028182000","OBJECT_NAME":"STARLINK-1850","INCLINATION":"53.0565","ECCENTRICITY":"0.00019510","DECAY_DATE":null,"LAUNCH_DATE":"2020-11-25","COUNTRY_CODE":"US"},{"APOAPSIS":"548.421","MEAN_MOTION_DOT":"-0.00001228","ELEMENT_SET_NO":"999","SITE":"AFETR","REF_FRAME":"TEME","MEAN_MOTION_DDOT":"0.0000000000000","OBJECT_TYPE":"PAYLOAD","ARG_OF_PERICENTER":"61.4549","REV_AT_EPOCH":"6186","PERIAPSIS":"546.048","RCS_SIZE":"LARGE","PERIOD":"95.593","RA_OF_ASC_NODE":"314.0321","SEMIMAJOR_AXIS":"6925.369","CENTER_NAME":"EARTH","TLE_LINE2":"2 47139  53.0564 314.0321 0001713  61.4549 298.6612 15.06393203 61861","MEAN_ANOMALY":"298.6612","DECAY_DATE":null,"COUNTRY_CODE":"US","LAUNCH_DATE":"2020-11-25","INCLINATION":"53.0564","OBJECT_NAME":"STARLINK-1852","ECCENTRICITY":"0.00017130","BSTAR":"-0.00006354700000","TLE_LINE1":"1 47139U 20088T   22004.37386707 -.00001228  00000-0 -63547-4 0  9995","MEAN_ELEMENT_THEORY":"SGP4","OBJECT_ID":"2020-088T","EPOCH":"2022-01-04T08:58:22.114848","TIME_SYSTEM":"UTC","FILE":"3263295","CLASSIFICATION_TYPE":"U","GP_ID":"193179619","MEAN_MOTION":"15.06393203","EPHEMERIS_TYPE":"0","NORAD_CAT_ID":"47139"},{"RA_OF_ASC_NODE":"230.4905","PERIOD":"90.521","RCS_SIZE":"LARGE","PERIAPSIS":"292.468","REV_AT_EPOCH":"6308","ARG_OF_PERICENTER":"154.4997","MEAN_ANOMALY":"205.6593","TLE_LINE2":"2 47140  53.0431 230.4905 0011399 154.4997 205.6593 15.90787268 63089","CENTER_NAME":"EARTH","SEMIMAJOR_AXIS":"6678.216","SITE":"AFETR","ELEMENT_SET_NO":"999","MEAN_MOTION_DOT":"0.00134226","APOAPSIS":"307.693","OBJECT_TYPE":"PAYLOAD","MEAN_MOTION_DDOT":"0.0000177250000","REF_FRAME":"TEME","TIME_SYSTEM":"UTC","OBJECT_ID":"2020-088U","EPOCH":"2022-01-04T21:34:32.844000","NORAD_CAT_ID":"47140","EPHEMERIS_TYPE":"0","GP_ID":"193215475","CLASSIFICATION_TYPE":"U","MEAN_MOTION":"15.90787268","FILE":"3264067","ECCENTRICITY":"0.00113990","OBJECT_NAME":"STARLINK-1853","INCLINATION":"53.0431","LAUNCH_DATE":"2020-11-25","COUNTRY_CODE":"US","DECAY_DATE":null,"MEAN_ELEMENT_THEORY":"SGP4","TLE_LINE1":"1 47140U 20088U   22004.89899125  .00134226  17725-4  42844-3 0  9992","BSTAR":"0.00042844000000"},{"OBJECT_NAME":"STARLINK-1854","INCLINATION":"53.0592","ECCENTRICITY":"0.00022850","DECAY_DATE":null,"COUNTRY_CODE":"US","LAUNCH_DATE":"2020-11-25","TLE_LINE1":"1 47141U 20088V   22004.31905562 -.00002683  00000-0 -16130-3 0  9999","MEAN_ELEMENT_THEORY":"SGP4","BSTAR":"-0.00016130000000","TIME_SYSTEM":"UTC","EPOCH":"2022-01-04T07:39:26.405568","OBJECT_ID":"2020-088V","GP_ID":"193180121","MEAN_MOTION":"15.06392295","CLASSIFICATION_TYPE":"U","EPHEMERIS_TYPE":"0","NORAD_CAT_ID":"47141","FILE":"3263295","SITE":"AFETR","MEAN_MOTION_DOT":"-0.00002683","APOAPSIS":"548.820","ELEMENT_SET_NO":"999","OBJECT_TYPE":"PAYLOAD","MEAN_MOTION_DDOT":"0.0000000000000","REF_FRAME":"TEME","RA_OF_ASC_NODE":"299.2595","PERIOD":"95.593","RCS_SIZE":"LARGE","REV_AT_EPOCH":"6207","ARG_OF_PERICENTER":"59.4957","PERIAPSIS":"545.655","MEAN_ANOMALY":"300.6258","TLE_LINE2":"2 47141  53.0592 299.2595 0002285  59.4957 300.6258 15.06392295 62071","SEMIMAJOR_AXIS":"6925.372","CENTER_NAME":"EARTH"},{"PERIAPSIS":"545.927","REV_AT_EPOCH":"6205","ARG_OF_PERICENTER":"56.2793","PERIOD":"95.592","RA_OF_ASC_NODE":"299.6422","RCS_SIZE":"LARGE","CENTER_NAME":"EARTH","SEMIMAJOR_AXIS":"6925.363","MEAN_ANOMALY":"303.8374","TLE_LINE2":"2 47143  53.0553 299.6422 0001879  56.2793 303.8374 15.06395287 62050","ELEMENT_SET_NO":"999","MEAN_MOTION_DOT":"-0.00001951","APOAPSIS":"548.529","SITE":"AFETR","MEAN_MOTION_DDOT":"0.0000000000000","REF_FRAME":"TEME","OBJECT_TYPE":"PAYLOAD","TIME_SYSTEM":"UTC","EPOCH":"2022-01-04T05:37:22.173024","OBJECT_ID":"2020-088X","FILE":"3263295","EPHEMERIS_TYPE":"0","NORAD_CAT_ID":"47143","CLASSIFICATION_TYPE":"U","GP_ID":"193180871","MEAN_MOTION":"15.06395287","COUNTRY_CODE":"US","LAUNCH_DATE":"2020-11-25","DECAY_DATE":null,"ECCENTRICITY":"0.00018790","INCLINATION":"53.0553","OBJECT_NAME":"STARLINK-1856","BSTAR":"-0.00011209000000","MEAN_ELEMENT_THEORY":"SGP4","TLE_LINE1":"1 47143U 20088X   22004.23428441 -.00001951  00000-0 -11209-3 0  9997"},{"OBJECT_TYPE":"PAYLOAD","REF_FRAME":"TEME","MEAN_MOTION_DDOT":"0.0000000000000","SITE":"AFETR","APOAPSIS":"548.538","MEAN_MOTION_DOT":"0.00000174","ELEMENT_SET_NO":"999","TLE_LINE2":"2 47144  53.0561 289.7197 0001883  54.5401 305.5763 15.06393391 62191","MEAN_ANOMALY":"305.5763","SEMIMAJOR_AXIS":"6925.369","CENTER_NAME":"EARTH","RCS_SIZE":"LARGE","RA_OF_ASC_NODE":"289.7197","PERIOD":"95.593","ARG_OF_PERICENTER":"54.5401","REV_AT_EPOCH":"6219","PERIAPSIS":"545.930","TLE_LINE1":"1 47144U 20088Y   22004.22046520  .00000174  00000-0  30584-4 0  9993","MEAN_ELEMENT_THEORY":"SGP4","BSTAR":"0.00003058400000","INCLINATION":"53.0561","OBJECT_NAME":"STARLINK-1857","ECCENTRICITY":"0.00018830","DECAY_DATE":null,"LAUNCH_DATE":"2020-11-25","COUNTRY_CODE":"US","CLASSIFICATION_TYPE":"U","GP_ID":"193179120","MEAN_MOTION":"15.06393391","NORAD_CAT_ID":"47144","EPHEMERIS_TYPE":"0","FILE":"3263295","EPOCH":"2022-01-04T05:17:28.193280","OBJECT_ID":"2020-088Y","TIME_SYSTEM":"UTC"},{"MEAN_MOTION_DOT":"-0.00002259","APOAPSIS":"549.625","ELEMENT_SET_NO":"999","SITE":"AFETR","MEAN_MOTION_DDOT":"0.0000000000000","REF_FRAME":"TEME","OBJECT_TYPE":"PAYLOAD","REV_AT_EPOCH":"6228","ARG_OF_PERICENTER":"32.5769","PERIAPSIS":"544.840","PERIOD":"95.593","RA_OF_ASC_NODE":"287.0628","RCS_SIZE":"LARGE","SEMIMAJOR_AXIS":"6925.368","CENTER_NAME":"EARTH","MEAN_ANOMALY":"327.5432","TLE_LINE2":"2 47145  53.0555 287.0628 0003455  32.5769 327.5432 15.06393763 62285","DECAY_DATE":null,"COUNTRY_CODE":"US","LAUNCH_DATE":"2020-11-25","INCLINATION":"53.0555","OBJECT_NAME":"STARLINK-1858","ECCENTRICITY":"0.00034550","BSTAR":"-0.00013272000000","TLE_LINE1":"1 47145U 20088Z   22004.81020764 -.00002259  00000-0 -13272-3 0  9993","MEAN_ELEMENT_THEORY":"SGP4","TIME_SYSTEM":"UTC","OBJECT_ID":"2020-088Z","EPOCH":"2022-01-04T19:26:41.940096","FILE":"3264067","GP_ID":"193215975","MEAN_MOTION":"15.06393763","CLASSIFICATION_TYPE":"U","EPHEMERIS_TYPE":"0","NORAD_CAT_ID":"47145"},{"PERIAPSIS":"411.804","ARG_OF_PERICENTER":"45.2288","REV_AT_EPOCH":"6193","RCS_SIZE":"LARGE","PERIOD":"92.826","RA_OF_ASC_NODE":"307.5295","CENTER_NAME":"EARTH","SEMIMAJOR_AXIS":"6791.097","TLE_LINE2":"2 47146  53.0565 307.5295 0001706  45.2288 314.8859 15.51289440 61938","MEAN_ANOMALY":"314.8859","ELEMENT_SET_NO":"999","APOAPSIS":"414.121","MEAN_MOTION_DOT":"0.00085553","SITE":"AFETR","REF_FRAME":"TEME","MEAN_MOTION_DDOT":"0.0000000000000","OBJECT_TYPE":"PAYLOAD","OBJECT_ID":"2020-088AA","EPOCH":"2022-01-04T02:38:24.189216","TIME_SYSTEM":"UTC","FILE":"3263295","EPHEMERIS_TYPE":"0","NORAD_CAT_ID":"47146","MEAN_MOTION":"15.51289440","GP_ID":"193180621","CLASSIFICATION_TYPE":"U","COUNTRY_CODE":"US","LAUNCH_DATE":"2020-11-25","DECAY_DATE":null,"ECCENTRICITY":"0.00017060","INCLINATION":"53.0565","OBJECT_NAME":"STARLINK-1859","BSTAR":"0.00142590000000","MEAN_ELEMENT_THEORY":"SGP4","TLE_LINE1":"1 47146U 20088AA  22004.11000219  .00085553  00000-0  14259-2 0  9991"},{"SITE":"AFETR","ELEMENT_SET_NO":"999","MEAN_MOTION_DOT":"0.00000549","APOAPSIS":"548.612","OBJECT_TYPE":"PAYLOAD","MEAN_MOTION_DDOT":"0.0000000000000","REF_FRAME":"TEME","RA_OF_ASC_NODE":"307.8327","PERIOD":"95.592","RCS_SIZE":"LARGE","PERIAPSIS":"545.831","REV_AT_EPOCH":"6198","ARG_OF_PERICENTER":"58.2158","MEAN_ANOMALY":"301.9027","TLE_LINE2":"2 47147  53.0556 307.8327 0002008  58.2158 301.9027 15.06397425 61986","CENTER_NAME":"EARTH","SEMIMAJOR_AXIS":"6925.356","ECCENTRICITY":"0.00020080","OBJECT_NAME":"STARLINK-1860","INCLINATION":"53.0556","COUNTRY_CODE":"US","LAUNCH_DATE":"2020-11-25","DECAY_DATE":null,"MEAN_ELEMENT_THEORY":"SGP4","TLE_LINE1":"1 47147U 20088AB  22004.64249868  .00000549  00000-0  55735-4 0  9993","BSTAR":"0.00005573500000","TIME_SYSTEM":"UTC","EPOCH":"2022-01-04T15:25:11.885952","OBJECT_ID":"2020-088AB","EPHEMERIS_TYPE":"0","NORAD_CAT_ID":"47147","CLASSIFICATION_TYPE":"U","GP_ID":"193214474","MEAN_MOTION":"15.06397425","FILE":"3264067"}];
